OBJECT_NAME,OBJECT_ID,EPOCH,MEAN_MOTION,ECCENTRICITY,INCLINATION,RA_OF_ASC_NODE,ARG_OF_PERICENTER,MEAN_ANOMALY,EPHEMERIS_TYPE,CLASSIFICATION_TYPE,NORAD_CAT_ID,ELEMENT_SET_NO,REV_AT_EPOCH,BSTAR,MEAN_MOTION_DOT,MEAN_MOTION_DDOT
SPACEMOBILE-004,2024-163E,2026-07-08T23:37:05.356128,15.20818344,.00070381,52.9658,208.6863,205.0590,155.0064,0,U,61049,999,10108,.53863509E-3,.1173E-3,0
CZ-8A R/B,2025-231K,2026-07-09T06:31:50.256480,14.30161100,.01165209,50.0053,305.3581,301.7613,57.1992,0,U,66004,999,3810,.47123524E-4,-.32E-6,0
SZ-21 MODULE,2025-246C,2026-07-08T23:53:58.308000,15.78344685,.00067939,41.4703,171.3042,177.6183,182.4695,0,U,66515,999,3718,.22392894E-3,.39693E-3,0
SPACEMOBILE-006,2025-309A,2026-07-08T04:03:30.389472,15.18644437,.00106305,52.9947,235.5229,192.2291,167.8446,0,U,67232,999,2978,.24444343E-4,.19E-5,0
SPACEMOBILE-008,2026-139A,2026-07-09T06:33:07.087680,15.12796930,.00047468,52.9939,162.2948,42.3763,317.7594,0,U,69589,999,332,.43934622E-4,.479E-5,0
SPACEMOBILE-009,2026-139B,2026-07-08T22:39:38.121408,15.12689610,.00049803,52.9929,163.7993,36.9056,323.2277,0,U,69590,999,327,.42785832E-4,.456E-5,0
SPACEMOBILE-010,2026-139C,2026-07-08T10:01:53.865984,15.12519992,.000482,52.9933,166.2159,26.6938,333.4300,0,U,69591,999,320,.44398179E-4,.482E-5,0
